start=new Date('2021-10-11T00:00:00.000Z').valueOf();
sats=[{"TLE_LINE2":"2 47628  53.0559 103.3009 0001693 102.3950 257.7228 15.06411324 37180","REV_AT_EPOCH":"3718","FILE":"3155694","DECAY_DATE":null,"MEAN_MOTION_DDOT":"0.0000000000000","ELEMENT_SET_NO":"999","REF_FRAME":"TEME","MEAN_MOTION":"15.06411324","CENTER_NAME":"EARTH","OBJECT_TYPE":"PAYLOAD","ECCENTRICITY":"0.00016930","EPHEMERIS_TYPE":"0","RCS_SIZE":"LARGE","EPOCH":"2021-10-10T18:34:27.830208","COUNTRY_CODE":"US","CLASSIFICATION_TYPE":"U","INCLINATION":"53.0559","OBJECT_ID":"2021-012J","TLE_LINE1":"1 47628U 21012J   21283.77393322 -.00002839  00000-0 -17172-3 0  9990","PERIOD":"95.591","MEAN_ANOMALY":"257.7228","LAUNCH_DATE":"2021-02-16","GP_ID":"186840841","ARG_OF_PERICENTER":"102.3950","TIME_SYSTEM":"UTC","OBJECT_NAME":"STARLINK-1973","PERIAPSIS":"546.006","SEMIMAJOR_AXIS":"6925.314","SITE":"AFETR","MEAN_MOTION_DOT":"-0.00002839","RA_OF_ASC_NODE":"103.3009","APOAPSIS":"548.351","BSTAR":"-0.00017172000000","MEAN_ELEMENT_THEORY":"SGP4","NORAD_CAT_ID":"47628"},{"PERIAPSIS":"346.102","RA_OF_ASC_NODE":"4.2657","SEMIMAJOR_AXIS":"6727.826","SITE":"AFETR","MEAN_MOTION_DOT":"-0.00003490","MEAN_ELEMENT_THEORY":"SGP4","APOAPSIS":"353.280","BSTAR":"-0.00002035900000","NORAD_CAT_ID":"47629","TLE_LINE1":"1 47629U 21012K   21284.00001157 -.00003490  00000-0 -20359-4 0  9996","OBJECT_ID":"2021-012K","PERIOD":"91.532","MEAN_ANOMALY":"189.0395","GP_ID":"186839589","LAUNCH_DATE":"2021-02-16","OBJECT_NAME":"STARLINK-1974","ARG_OF_PERICENTER":"332.9183","TIME_SYSTEM":"UTC","ECCENTRICITY":"0.00053340","EPHEMERIS_TYPE":"0","RCS_SIZE":"LARGE","EPOCH":"2021-10-11T00:00:00.999648","COUNTRY_CODE":"US","INCLINATION":"53.0431","CLASSIFICATION_TYPE":"U","TLE_LINE2":"2 47629  53.0431   4.2657 0005334 332.9183 189.0395 15.73224304  3711","DECAY_DATE":null,"FILE":"3155694","REV_AT_EPOCH":"371","REF_FRAME":"TEME","MEAN_MOTION_DDOT":"0.0000000000000","ELEMENT_SET_NO":"999","CENTER_NAME":"EARTH","OBJECT_TYPE":"PAYLOAD","MEAN_MOTION":"15.73224304"},{"COUNTRY_CODE":"US","INCLINATION":"53.0544","CLASSIFICATION_TYPE":"U","EPHEMERIS_TYPE":"0","ECCENTRICITY":"0.00018970","EPOCH":"2021-10-10T18:30:27.826560","RCS_SIZE":"LARGE","REF_FRAME":"TEME","ELEMENT_SET_NO":"999","MEAN_MOTION_DDOT":"0.0000000000000","OBJECT_TYPE":"PAYLOAD","CENTER_NAME":"EARTH","MEAN_MOTION":"15.06392509","TLE_LINE2":"2 47630  53.0544  83.2958 0001897  99.1056 261.0148 15.06392509 37443","FILE":"3155694","DECAY_DATE":null,"REV_AT_EPOCH":"3744","MEAN_ELEMENT_THEORY":"SGP4","BSTAR":"0.00000337930000","APOAPSIS":"548.550","NORAD_CAT_ID":"47630","PERIAPSIS":"545.923","RA_OF_ASC_NODE":"83.2958","SEMIMAJOR_AXIS":"6925.372","SITE":"AFETR","MEAN_MOTION_DOT":"-0.00000231","GP_ID":"186839839","LAUNCH_DATE":"2021-02-16","OBJECT_NAME":"STARLINK-1983","TIME_SYSTEM":"UTC","ARG_OF_PERICENTER":"99.1056","TLE_LINE1":"1 47630U 21012L   21283.77115540 -.00000231  00000-0  33793-5 0  9999","OBJECT_ID":"2021-012L","MEAN_ANOMALY":"261.0148","PERIOD":"95.593"},{"GP_ID":"186841090","LAUNCH_DATE":"2021-02-16","OBJECT_NAME":"STARLINK-1985","ARG_OF_PERICENTER":"23.1369","TIME_SYSTEM":"UTC","TLE_LINE1":"1 47631U 21012M   21284.00001157  .00133296  00000-0  12166-2 0  9990","OBJECT_ID":"2021-012M","MEAN_ANOMALY":"275.2405","PERIOD":"91.898","MEAN_ELEMENT_THEORY":"SGP4","BSTAR":"0.00121660000000","APOAPSIS":"369.985","NORAD_CAT_ID":"47631","PERIAPSIS":"365.240","RA_OF_ASC_NODE":"5.4902","SEMIMAJOR_AXIS":"6745.748","SITE":"AFETR","MEAN_MOTION_DOT":"0.00133296","REF_FRAME":"TEME","MEAN_MOTION_DDOT":"0.0000000000000","ELEMENT_SET_NO":"999","OBJECT_TYPE":"PAYLOAD","CENTER_NAME":"EARTH","MEAN_MOTION":"15.66958880","TLE_LINE2":"2 47631  53.0439   5.4902 0003517  23.1369 275.2405 15.66958880  3663","FILE":"3155694","DECAY_DATE":null,"REV_AT_EPOCH":"366","COUNTRY_CODE":"US","CLASSIFICATION_TYPE":"U","INCLINATION":"53.0439","ECCENTRICITY":"0.00035170","EPHEMERIS_TYPE":"0","RCS_SIZE":"LARGE","EPOCH":"2021-10-11T00:00:00.999648"},{"PERIAPSIS":"487.260","RA_OF_ASC_NODE":"7.8421","SITE":"AFETR","MEAN_MOTION_DOT":"-0.01066284","SEMIMAJOR_AXIS":"6866.540","MEAN_ELEMENT_THEORY":"SGP4","BSTAR":"-0.04494500000000","APOAPSIS":"489.551","NORAD_CAT_ID":"47632","OBJECT_ID":"2021-012N","TLE_LINE1":"1 47632U 21012N   21284.00001157 -.01066284  00000-0 -44945-1 0  9995","MEAN_ANOMALY":"169.9600","PERIOD":"94.377","GP_ID":"186841341","LAUNCH_DATE":"2021-02-16","OBJECT_NAME":"STARLINK-1992","ARG_OF_PERICENTER":"46.7326","TIME_SYSTEM":"UTC","ECCENTRICITY":"0.00016680","EPHEMERIS_TYPE":"0","RCS_SIZE":"LARGE","EPOCH":"2021-10-11T00:00:00.999648","COUNTRY_CODE":"US","CLASSIFICATION_TYPE":"U","INCLINATION":"53.0441","TLE_LINE2":"2 47632  53.0441   7.8421 0001668  46.7326 169.9600 15.25793688  3662","FILE":"3155694","DECAY_DATE":null,"REV_AT_EPOCH":"366","REF_FRAME":"TEME","MEAN_MOTION_DDOT":"0.0000000000000","ELEMENT_SET_NO":"999","CENTER_NAME":"EARTH","OBJECT_TYPE":"PAYLOAD","MEAN_MOTION":"15.25793688"},{"MEAN_ANOMALY":"273.7242","PERIOD":"95.592","OBJECT_ID":"2021-012P","TLE_LINE1":"1 47633U 21012P   21283.92137327 -.00000573  00000-0 -19593-4 0  9997","TIME_SYSTEM":"UTC","ARG_OF_PERICENTER":"86.3950","OBJECT_NAME":"STARLINK-2009","LAUNCH_DATE":"2021-02-16","GP_ID":"186840089","SEMIMAJOR_AXIS":"6925.351","SITE":"AFETR","MEAN_MOTION_DOT":"-0.00000573","RA_OF_ASC_NODE":"102.6402","PERIAPSIS":"545.985","NORAD_CAT_ID":"47633","APOAPSIS":"548.447","BSTAR":"-0.00001959300000","MEAN_ELEMENT_THEORY":"SGP4","REV_AT_EPOCH":"3722","DECAY_DATE":null,"FILE":"3155694","TLE_LINE2":"2 47633  53.0538 102.6402 0001777  86.3950 273.7242 15.06399204 37227","MEAN_MOTION":"15.06399204","CENTER_NAME":"EARTH","OBJECT_TYPE":"PAYLOAD","ELEMENT_SET_NO":"999","MEAN_MOTION_DDOT":"0.0000000000000","REF_FRAME":"TEME","EPOCH":"2021-10-10T22:06:46.650528","RCS_SIZE":"LARGE","ECCENTRICITY":"0.00017770","EPHEMERIS_TYPE":"0","INCLINATION":"53.0538","CLASSIFICATION_TYPE":"U","COUNTRY_CODE":"US"},{"COUNTRY_CODE":"US","INCLINATION":"53.0545","CLASSIFICATION_TYPE":"U","EPHEMERIS_TYPE":"0","ECCENTRICITY":"0.00014390","EPOCH":"2021-10-10T18:23:51.955584","RCS_SIZE":"LARGE","REF_FRAME":"TEME","ELEMENT_SET_NO":"999","MEAN_MOTION_DDOT":"0.0000000000000","OBJECT_TYPE":"PAYLOAD","CENTER_NAME":"EARTH","MEAN_MOTION":"15.06380630","TLE_LINE2":"2 47634  53.0545 103.3379 0001439  78.9007 281.2143 15.06380630 37173","FILE":"3155694","DECAY_DATE":null,"REV_AT_EPOCH":"3717","MEAN_ELEMENT_THEORY":"SGP4","BSTAR":"0.00035668000000","APOAPSIS":"548.269","NORAD_CAT_ID":"47634","PERIAPSIS":"546.276","RA_OF_ASC_NODE":"103.3379","SITE":"AFETR","SEMIMAJOR_AXIS":"6925.408","MEAN_MOTION_DOT":"0.00005032","GP_ID":"186840339","LAUNCH_DATE":"2021-02-16","OBJECT_NAME":"STARLINK-2010","TIME_SYSTEM":"UTC","ARG_OF_PERICENTER":"78.9007","TLE_LINE1":"1 47634U 21012Q   21283.76657356  .00005032  00000-0  35668-3 0  9992","OBJECT_ID":"2021-012Q","MEAN_ANOMALY":"281.2143","PERIOD":"95.593"},{"ECCENTRICITY":"0.00014840","EPHEMERIS_TYPE":"0","EPOCH":"2021-10-11T00:00:00.999648","RCS_SIZE":"LARGE","COUNTRY_CODE":"US","INCLINATION":"53.0400","CLASSIFICATION_TYPE":"U","TLE_LINE2":"2 47635  53.0400   7.9959 0001484  42.0581 313.5419 15.26229559  3651","FILE":"3155694","DECAY_DATE":null,"REV_AT_EPOCH":"365","REF_FRAME":"TEME","ELEMENT_SET_NO":"999","MEAN_MOTION_DDOT":"0.0000000000000","CENTER_NAME":"EARTH","OBJECT_TYPE":"PAYLOAD","MEAN_MOTION":"15.26229559","PERIAPSIS":"486.079","RA_OF_ASC_NODE":"7.9959","MEAN_MOTION_DOT":"-0.00932256","SITE":"AFETR","SEMIMAJOR_AXIS":"6865.233","MEAN_ELEMENT_THEORY":"SGP4","BSTAR":"-0.03834800000000","APOAPSIS":"488.117","NORAD_CAT_ID":"47635","TLE_LINE1":"1 47635U 21012R   21284.00001157 -.00932256  00000-0 -38348-1 0  9998","OBJECT_ID":"2021-012R","PERIOD":"94.350","MEAN_ANOMALY":"313.5419","GP_ID":"186840591","LAUNCH_DATE":"2021-02-16","OBJECT_NAME":"STARLINK-2012","TIME_SYSTEM":"UTC","ARG_OF_PERICENTER":"42.0581"},{"LAUNCH_DATE":"2021-02-16","GP_ID":"186840842","ARG_OF_PERICENTER":"311.2397","TIME_SYSTEM":"UTC","OBJECT_NAME":"STARLINK-2013","TLE_LINE1":"1 47636U 21012S   21283.82000292 -.00000390  00000-0 -71772-5 0  9994","OBJECT_ID":"2021-012S","MEAN_ANOMALY":"48.8207","PERIOD":"95.592","APOAPSIS":"550.297","BSTAR":"-0.00000717720000","MEAN_ELEMENT_THEORY":"SGP4","NORAD_CAT_ID":"47636","PERIAPSIS":"544.128","SITE":"AFETR","MEAN_MOTION_DOT":"-0.00000390","SEMIMAJOR_AXIS":"6925.348","RA_OF_ASC_NODE":"83.0801","MEAN_MOTION_DDOT":"0.0000000000000","ELEMENT_SET_NO":"999","REF_FRAME":"TEME","MEAN_MOTION":"15.06400339","CENTER_NAME":"EARTH","OBJECT_TYPE":"PAYLOAD","TLE_LINE2":"2 47636  53.0550  83.0801 0004454 311.2397  48.8207 15.06400339 37469","REV_AT_EPOCH":"3746","FILE":"3155694","DECAY_DATE":null,"COUNTRY_CODE":"US","INCLINATION":"53.0550","CLASSIFICATION_TYPE":"U","ECCENTRICITY":"0.00044540","EPHEMERIS_TYPE":"0","RCS_SIZE":"LARGE","EPOCH":"2021-10-10T19:40:48.252288"},{"MEAN_MOTION_DDOT":"0.0000000000000","ELEMENT_SET_NO":"999","REF_FRAME":"TEME","MEAN_MOTION":"15.06402141","CENTER_NAME":"EARTH","OBJECT_TYPE":"PAYLOAD","TLE_LINE2":"2 47637  53.0550  82.9156 0002114  71.1860 288.9358 15.06402141 37488","REV_AT_EPOCH":"3748","DECAY_DATE":null,"FILE":"3155694","COUNTRY_CODE":"US","CLASSIFICATION_TYPE":"U","INCLINATION":"53.0550","ECCENTRICITY":"0.00021140","EPHEMERIS_TYPE":"0","RCS_SIZE":"LARGE","EPOCH":"2021-10-10T20:33:52.820640","LAUNCH_DATE":"2021-02-16","GP_ID":"186839590","ARG_OF_PERICENTER":"71.1860","TIME_SYSTEM":"UTC","OBJECT_NAME":"STARLINK-2014","OBJECT_ID":"2021-012T","TLE_LINE1":"1 47637U 21012T   21283.85686135  .00001302  00000-0  10630-3 0  9990","MEAN_ANOMALY":"288.9358","PERIOD":"95.592","APOAPSIS":"548.671","BSTAR":"0.00010630000000","MEAN_ELEMENT_THEORY":"SGP4","NORAD_CAT_ID":"47637","PERIAPSIS":"545.743","SITE":"AFETR","SEMIMAJOR_AXIS":"6925.342","MEAN_MOTION_DOT":"0.00001302","RA_OF_ASC_NODE":"82.9156"}];
